NORAD_CAT_ID,OBJECT_NAME,OBJECT_TYPE,EPOCH,MEAN_MOTION,ECCENTRICITY,INCLINATION,RA_OF_ASC_NODE,ARG_OF_PERICENTER,MEAN_ANOMALY,BSTAR,MEAN_MOTION_DOT,MEAN_MOTION_DDOT,TLE_LINE0,TLE_LINE1,TLE_LINE2,SEMIMAJOR_AXIS,PERIOD,APOGEE,PERIGEE,DECAYED
54191.0,STARLINK-4619,PAYLOAD,2024-06-28 22:26:56,15.08853824,0.0001387,53.2174,252.0571,82.9045,277.2105,0.00010845,1.439e-05,0.0,0 STARLINK-4619,1 54191U 22141AL  24180.93537422  .00001439  00000-0  10845-3 0  9998,2 54191  53.2174 252.0571 0001387  82.9045 277.2105 15.08853824 92585,6917.838,95.437,540.663,538.744,0.0
54191.0,STARLINK-4619,PAYLOAD,2024-06-29 04:48:29,15.08844516,0.0002389,53.2168,250.8666,87.0513,273.0752,9.4777e-05,1.221e-05,0.0,0 STARLINK-4619,1 54191U 22141AL  24181.20034333  .00001221  00000-0  94777-4 0  9998,2 54191  53.2168 250.8666 0002389  87.0513 273.0752 15.08844516 92858,6917.867,95.437,541.384,538.079,0.0
54191.0,STARLINK-4619,PAYLOAD,2024-06-29 11:10:03,15.08827424,0.0001375,53.2169,249.6781,91.5255,268.5895,-3.7867e-05,-8.9e-06,0.0,0 STARLINK-4619,1 54191U 22141AL  24181.46531669 -.00000890  00000-0 -37867-4 0  9990,2 54191  53.2169 249.6781 0001375  91.5255 268.5895 15.08827424 92890,6917.919,95.438,540.735,538.833,0.0
54191.0,STARLINK-4619,PAYLOAD,2024-06-30 04:39:17,15.08838026,0.0001431,53.2172,246.4056,106.6409,253.4741,2.6084e-05,1.27e-06,0.0,0 STARLINK-4619,1 54191U 22141AL  24182.19395117  .00000127  00000-0  26084-4 0  9997,2 54191  53.2172 246.4056 0001431 106.6409 253.4741 15.08838026 93003,6917.886,95.438,540.741,538.761,0.0
54191.0,STARLINK-4619,PAYLOAD,2024-06-30 11:00:49,15.08843462,0.0001292,53.2176,245.2193,86.3406,273.7734,3.0447e-05,1.97e-06,0.0,0 STARLINK-4619,1 54191U 22141AL  24182.45890974  .00000197  00000-0  30447-4 0  9992,2 54191  53.2176 245.2193 0001292  86.3406 273.7734 15.08843462 92817,6917.87,95.437,540.629,538.841,0.0
54191.0,STARLINK-4619,PAYLOAD,2024-07-01 10:51:37,15.08834632,0.0001194,53.215,240.7567,90.5926,269.5203,0.00023409,3.439e-05,0.0,0 STARLINK-4619,1 54191U 22141AL  24183.45251672  .00003439  00000-0  23409-3 0  9990,2 54191  53.2150 240.7567 0001194  90.5926 269.5203 15.08834632 93194,6917.897,95.438,540.588,538.936,0.0
54191.0,STARLINK-4619,PAYLOAD,2024-07-01 14:02:23,15.08837233,0.0001202,53.2152,240.1615,86.4753,273.6376,0.00015056,2.109e-05,0.0,0 STARLINK-4619,1 54191U 22141AL  24183.58499544  .00002109  00000-0  15056-3 0  9998,2 54191  53.2152 240.1615 0001202  86.4753 273.6376 15.08837233 92989,6917.889,95.438,540.585,538.922,0.0
54191.0,STARLINK-4619,PAYLOAD,2024-07-01 20:23:55,15.08843255,0.0001328,53.2159,238.9739,94.0332,266.0812,0.00017164,2.445e-05,0.0,0 STARLINK-4619,1 54191U 22141AL  24183.84995170  .00002445  00000-0  17164-3 0  9998,2 54191  53.2159 238.9739 0001328  94.0332 266.0812 15.08843255 93023,6917.87,95.437,540.654,538.817,0.0
54191.0,STARLINK-4619,PAYLOAD,2024-07-02 12:17:47,15.0883845,0.0001307,53.2181,236.0015,90.7925,269.3217,7.9004e-05,9.7e-06,0.0,0 STARLINK-4619,1 54191U 22141AL  24184.51235700  .00000970  00000-0  79004-4 0  9992,2 54191  53.2181 236.0015 0001307  90.7925 269.3217 15.08838450 93354,6917.885,95.438,540.654,538.846,0.0
54191.0,STARLINK-4619,PAYLOAD,2024-07-03 20:05:30,15.0884476,0.0001324,53.2165,230.0527,88.2761,271.8383,0.00011492,1.542e-05,0.0,0 STARLINK-4619,1 54191U 22141AL  24185.83715313  .00001542  00000-0  11492-3 0  9993,2 54191  53.2165 230.0527 0001324  88.2761 271.8383 15.08844760 93552,6917.866,95.437,540.647,538.815,0.0
54191.0,STARLINK-4619,PAYLOAD,2024-07-04 11:59:21,15.08837082,0.0001397,53.2168,227.0779,83.7409,276.3743,6.8072e-05,7.96e-06,0.0,0 STARLINK-4619,1 54191U 22141AL  24186.49956003  .00000796  00000-0  68072-4 0  9996,2 54191  53.2168 227.0779 0001397  83.7409 276.3743 15.08837082 93659,6917.889,95.438,540.721,538.788,0.0
54191.0,STARLINK-4619,PAYLOAD,2024-07-04 19:56:17,15.08837076,0.0001406,53.2168,225.592,86.2136,273.9017,0.00021026,3.06e-05,0.0,0 STARLINK-4619,1 54191U 22141AL  24186.83075766  .00003060  00000-0  21026-3 0  9996,2 54191  53.2168 225.5920 0001406  86.2136 273.9017 15.08837076 93476,6917.889,95.438,540.727,538.782,0.0
54191.0,STARLINK-4619,PAYLOAD,2024-07-05 11:50:08,15.088446,0.0001246,53.2141,222.6198,89.6074,270.5061,0.00011178,1.492e-05,0.0,0 STARLINK-4619,1 54191U 22141AL  24187.49315306  .00001492  00000-0  11178-3 0  9990,2 54191  53.2141 222.6198 0001246  89.6074 270.5061 15.08844600 93802,6917.866,95.437,540.593,538.869,0.0
54191.0,STARLINK-4619,PAYLOAD,2024-07-05 19:47:04,15.0883149,0.0001344,53.214,221.1329,85.907,274.2075,0.00034718,5.24e-05,0.0,0 STARLINK-4619,1 54191U 22141AL  24187.82435738  .00005240  00000-0  34718-3 0  9999,2 54191  53.2140 221.1329 0001344  85.9070 274.2075 15.08831490 93859,6917.906,95.438,540.701,538.842,0.0
54191.0,STARLINK-4619,PAYLOAD,2024-07-06 11:40:55,15.08837381,0.0001451,53.2183,218.1549,99.7857,260.3299,5.2506e-06,-2.04e-06,0.0,0 STARLINK-4619,1 54191U 22141AL  24188.48675842 -.00000204  00000-0  52506-5 0  9997,2 54191  53.2183 218.1549 0001451  99.7857 260.3299 15.08837381 93726,6917.888,95.438,540.757,538.75,0.0
54191.0,STARLINK-4619,PAYLOAD,2024-07-06 19:37:51,15.08839643,0.0001466,53.2185,216.6684,98.7336,261.3823,1.2887e-05,-8.3e-07,0.0,0 STARLINK-4619,1 54191U 22141AL  24188.81795697 -.00000083  00000-0  12887-4 0  9997,2 54191  53.2185 216.6684 0001466  98.7336 261.3823 15.08839643 93770,6917.881,95.438,540.761,538.732,0.0
54191.0,STARLINK-4619,PAYLOAD,2024-07-07 05:10:12,15.08814919,0.0001241,53.2146,214.8883,88.184,271.9294,-0.00017467,-3.065e-05,0.0,0 STARLINK-4619,1 54191U 22141AL  24189.21542069 -.00003065  00000-0 -17467-3 0  9997,2 54191  53.2146 214.8883 0001241  88.1840 271.9294 15.08814919 94063,6917.957,95.439,540.681,538.964,0.0
54191.0,STARLINK-4619,PAYLOAD,2024-07-07 08:20:58,15.08813797,0.0001155,53.2162,214.292,91.9895,268.1229,-0.00017829,-3.122e-05,0.0,0 STARLINK-4619,1 54191U 22141AL  24189.34790283 -.00003122  00000-0 -17829-3 0  9990,2 54191  53.2162 214.2920 0001155  91.9895 268.1229 15.08813797 93858,6917.96,95.439,540.625,539.026,0.0
54191.0,STARLINK-4619,PAYLOAD,2024-07-08 11:22:31,15.08833553,0.0001205,53.2162,209.2356,102.2015,257.9112,7.3223e-05,8.77e-06,0.0,0 STARLINK-4619,1 54191U 22141AL  24190.47397348  .00000877  00000-0  73223-4 0  9994,2 54191  53.2162 209.2356 0001205 102.2015 257.9112 15.08833553 94255,6917.9,95.438,540.599,538.931,0.0
54191.0,STARLINK-4619,PAYLOAD,2024-07-08 17:44:03,15.08839843,0.0001297,53.2166,208.0468,102.6132,257.5005,0.00012693,1.733e-05,0.0,0 STARLINK-4619,1 54191U 22141AL  24190.73893005  .00001733  00000-0  12693-3 0  9999,2 54191  53.2166 208.0468 0001297 102.6132 257.5005 15.08839843 94069,6917.881,95.438,540.643,538.849,0.0
54191.0,STARLINK-4619,PAYLOAD,2024-07-09 08:02:32,15.08842767,0.0001151,53.2152,205.3707,105.4394,254.6726,0.0004541,6.947e-05,0.0,0 STARLINK-4619,1 54191U 22141AL  24191.33509518  .00006947  00000-0  45410-3 0  9994,2 54191  53.2152 205.3707 0001151 105.4394 254.6726 15.08842767 94157,6917.872,95.437,540.533,538.941,0.0
54191.0,STARLINK-4619,PAYLOAD,2024-07-10 09:28:41,15.08851088,0.0001138,53.2151,200.6127,104.8638,255.2481,7.6942e-05,9.37e-06,0.0,0 STARLINK-4619,1 54191U 22141AL  24192.39492585  .00000937  00000-0  76942-4 0  9994,2 54191  53.2151 200.6127 0001138 104.8638 255.2481 15.08851088 94543,6917.846,95.437,540.499,538.924,0.0
54191.0,STARLINK-4619,PAYLOAD,2024-07-11 09:19:28,15.08850681,0.000111,53.2161,196.1524,99.6681,260.4436,4.3046e-05,3.98e-06,0.0,0 STARLINK-4619,1 54191U 22141AL  24193.38852275  .00000398  00000-0  43046-4 0  9990,2 54191  53.2161 196.1524 0001110  99.6681 260.4436 15.08850681 94460,6917.848,95.437,540.481,538.945,0.0
54191.0,STARLINK-4619,PAYLOAD,2024-07-11 17:16:23,15.08852032,0.0001074,53.2159,194.665,94.2432,265.8683,6.1581e-05,6.93e-06,0.0,0 STARLINK-4619,1 54191U 22141AL  24193.71971906  .00000693  00000-0  61581-4 0  9992,2 54191  53.2159 194.6650 0001074  94.2432 265.8683 15.08852032 94740,6917.844,95.437,540.452,538.966,0.0
54191.0,STARLINK-4619,PAYLOAD,2024-07-12 04:24:06,15.08842945,0.0001162,53.216,192.5843,91.5586,268.5539,2.3866e-05,9.2e-07,0.0,0 STARLINK-4619,1 54191U 22141AL  24194.18340448  .00000092  00000-0  23866-4 0  9992,2 54191  53.2160 192.5843 0001162  91.5586 268.5539 15.08842945 94811,6917.871,95.437,540.54,538.933,0.0
54191.0,STARLINK-4619,PAYLOAD,2024-07-12 09:10:15,15.08845073,0.0001167,53.2161,191.6922,90.532,269.5806,3.1633e-05,2.16e-06,0.0,0 STARLINK-4619,1 54191U 22141AL  24194.38212190  .00000216  00000-0  31633-4 0  9995,2 54191  53.2161 191.6922 0001167  90.5320 269.5806 15.08845073 94611,6917.865,95.437,540.537,538.923,0.0
54191.0,STARLINK-4619,PAYLOAD,2024-07-12 17:07:10,15.08846602,0.0001159,53.2162,190.2051,89.6888,270.4237,4.9862e-05,5.06e-06,0.0,0 STARLINK-4619,1 54191U 22141AL  24194.71331952  .00000506  00000-0  49862-4 0  9995,2 54191  53.2162 190.2051 0001159  89.6888 270.4237 15.08846602 94662,6917.86,95.437,540.527,538.923,0.0
54191.0,STARLINK-4619,PAYLOAD,2024-07-13 05:50:15,15.08843636,0.000118,53.216,187.8263,91.7085,268.4042,3.5113e-05,2.71e-06,0.0,0 STARLINK-4619,1 54191U 22141AL  24195.24324040  .00000271  00000-0  35113-4 0  9997,2 54191  53.2160 187.8263 0001180  91.7085 268.4042 15.08843636 94973,6917.869,95.437,540.551,538.918,0.0
54191.0,STARLINK-4619,PAYLOAD,2024-07-13 16:57:57,15.08847273,0.0001184,53.2162,185.7447,91.3306,268.7822,5.0593e-05,5.18e-06,0.0,0 STARLINK-4619,1 54191U 22141AL  24195.70691643  .00000518  00000-0  50593-4 0  9997,2 54191  53.2162 185.7447 0001184  91.3306 268.7822 15.08847273 94815,6917.858,95.437,540.542,538.904,0.0
54191.0,STARLINK-4619,PAYLOAD,2024-07-14 08:51:48,15.08844443,0.0001235,53.2166,182.7706,93.18,266.9333,7.8835e-05,9.67e-06,0.0,0 STARLINK-4619,1 54191U 22141AL  24196.36931689  .00000967  00000-0  78835-4 0  9994,2 54191  53.2166 182.7706 0001235  93.1800 266.9333 15.08844443 95140,6917.867,95.437,540.586,538.877,0.0
